{"type": "FeatureCollection", "features": [ {"type": "Feature", "properties": {"norad_id": 58654, "name": "BEIDOU-3 M28 (C50)", "group": "beidou", "lat": 55.5894809815086, "lon": 156.33475046954084, "alt_km": 21528.652796374092, "timestamp": "2025-12-15T19:00:45.621706+00:00", "meta": {"OBJECT_NAME": "BEIDOU-3 M28 (C50)", "OBJECT_ID": "2023-207A", "EPOCH": "2025-12-14T14:03:38.782656", "MEAN_MOTION": 1.86229809, "ECCENTRICITY": 0.00024754, "INCLINATION": 55.5861, "RA_OF_ASC_NODE": 68.5388, "ARG_OF_PERICENTER": 270.5296, "MEAN_ANOMALY": 89.4603, "EPHEMERIS_TYPE": 0, "CLASSIFICATION_TYPE": "U", "NORAD_CAT_ID": 58654, "ELEMENT_SET_NO": 999, "REV_AT_EPOCH": 1340, "BSTAR": 0, "MEAN_MOTION_DOT": -8.4e-07, "MEAN_MOTION_DDOT": 0}, "tle": {"line1": "1 58654U 23207A   25348.58586554 -.00000084  00000+0  00000+0 0  9991", "line2": "2 58654  55.5861  68.5388 0002475 270.5296  89.4603  1.86229809 13400"}}, "geometry": {"type": "Point", "coordinates": [156.33475046954084, 55.5894809815086]}}, {"type": "Feature", "properties": {"norad_id": 58655, "name": "BEIDOU-3 M26 (C48)", "group": "beidou", "lat": -35.29462480296316, "lon": -82.52645686516279, "alt_km": 21523.18088246099, "timestamp": "2025-12-15T19:00:45.621718+00:00", "meta": {"OBJECT_NAME": "BEIDOU-3 M26 (C48)", "OBJECT_ID": "2023-207B", "EPOCH": "2025-12-14T09:12:13.791744", "MEAN_MOTION": 1.86231292, "ECCENTRICITY": 0.00038911, "INCLINATION": 55.5879, "RA_OF_ASC_NODE": 68.532, "ARG_OF_PERICENTER": 256.6064, "MEAN_ANOMALY": 103.3685, "EPHEMERIS_TYPE": 0, "CLASSIFICATION_TYPE": "U", "NORAD_CAT_ID": 58655, "ELEMENT_SET_NO": 999, "REV_AT_EPOCH": 1338, "BSTAR": 0, "MEAN_MOTION_DOT": -8.4e-07, "MEAN_MOTION_DDOT": 0}, "tle": {"line1": "1 58655U 23207B   25348.38349296 -.00000084  00000+0  00000+0 0  9990", "line2": "2 58655  55.5879  68.5320 0003891 256.6064 103.3685  1.86231292 13389"}}, "geometry": {"type": "Point", "coordinates": [-82.52645686516279, -35.29462480296316]}}, {"type": "Feature", "properties": {"norad_id": 61186, "name": "BEIDOU-3 M25 (C47)", "group": "beidou", "lat": -15.085442478330869, "lon": -62.43479647084904, "alt_km": 21519.27768466986, "timestamp": "2025-12-15T19:00:45.621730+00:00", "meta": {"OBJECT_NAME": "BEIDOU-3 M25 (C47)", "OBJECT_ID": "2024-168B", "EPOCH": "2025-12-13T09:51:38.613312", "MEAN_MOTION": 1.86230198, "ECCENTRICITY": 0.00054273, "INCLINATION": 54.6413, "RA_OF_ASC_NODE": 308.6962, "ARG_OF_PERICENTER": 297.8799, "MEAN_ANOMALY": 246.8955, "EPHEMERIS_TYPE": 0, "CLASSIFICATION_TYPE": "U", "NORAD_CAT_ID": 61186, "ELEMENT_SET_NO": 999, "REV_AT_EPOCH": 832, "BSTAR": 0, "MEAN_MOTION_DOT": -9.7e-07, "MEAN_MOTION_DDOT": 0}, "tle": {"line1": "1 61186U 24168B   25347.41086358 -.00000097  00000+0  00000+0 0  9994", "line2": "2 61186  54.6413 308.6962 0005427 297.8799 246.8955  1.86230198  8320"}}, "geometry": {"type": "Point", "coordinates": [-62.43479647084904, -15.085442478330869]}}, {"type": "Feature", "properties": {"norad_id": 61187, "name": "BEIDOU-3 M27 (C49)", "group": "beidou", "lat": 46.95251445757535, "lon": 79.12561541213965, "alt_km": 21527.578434935233, "timestamp": "2025-12-15T19:00:45.621742+00:00", "meta": {"OBJECT_NAME": "BEIDOU-3 M27 (C49)", "OBJECT_ID": "2024-168C", "EPOCH": "2025-12-14T06:33:38.742048", "MEAN_MOTION": 1.86230381, "ECCENTRICITY": 0.00024262, "INCLINATION": 54.6359, "RA_OF_ASC_NODE": 308.6501, "ARG_OF_PERICENTER": 337.7802, "MEAN_ANOMALY": 200.2001, "EPHEMERIS_TYPE": 0, "CLASSIFICATION_TYPE": "U", "NORAD_CAT_ID": 61187, "ELEMENT_SET_NO": 999, "REV_AT_EPOCH": 581, "BSTAR": 0, "MEAN_MOTION_DOT": -9.9e-07, "MEAN_MOTION_DDOT": 0}, "tle": {"line1": "1 61187U 24168C   25348.27336507 -.00000099  00000+0  00000+0 0  9996", "line2": "2 61187  54.6359 308.6501 0002426 337.7802 200.2001  1.86230381  5815"}}, "geometry": {"type": "Point", "coordinates": [79.12561541213965, 46.95251445757535]}}]}